UNKNOWN                 
1 89349U          25189.44570667 -.00000080  00000+0 -30509-3 0  9996
2 89349  90.2421   3.8099 0028738 322.9500  36.9635 12.96181039458370
UNKNOWN                 
1 89379U          25190.96863139  .00002847  00000+0  37765-2 0  9998
2 89379 100.4817 194.8267 0046324 141.1758 219.2723 13.61270806559573
UNKNOWN                 
1 89395U          25191.38297329  .00000358  00000+0  44998-2 0  9996
2 89395 102.3391 168.4496 0228262  29.9455 129.6662 12.01483845506086
UNKNOWN                 
1 89403U          25189.93721060 -.00000173  00000+0 -61431-3 0  9997
2 89403  90.2432   2.2447 0026543 277.7300 237.0203 12.98305011457475
UNKNOWN                 
1 89484U          25185.44598900  .00010654  00000+0  17129-1 0  9999
2 89484  84.2620 199.3026 2805861 235.7369  94.5674  9.03686087340810
UNKNOWN                 
1 89493U          25189.39602171  .00002033  00000+0  10322-2 0  9994
2 89493  99.0377 256.1791 0085126 125.6817 235.2317 14.15222435441688
UNKNOWN                 
1 89494U          25190.92794431  .00001562  00000+0  79865-3 0  9991
2 89494  99.0367 257.6349 0085695 121.5554 239.4023 14.15164245441759
